STARLINK-2047
1 27355C 21005G   21325.15836860  .00005549  00000-0  38835-3 0  3258
2 27355  53.0518 217.6283 0002084  59.4066 347.3430 15.04770457    16
